[{"OBJECT_NAME":"ONEWEB-0439","OBJECT_ID":"2022-012P","EPOCH":"2026-02-21T12:00:59.470848","MEAN_MOTION":13.10369635,"ECCENTRICITY":0.0001748,"INCLINATION":87.8753,"RA_OF_ASC_NODE":59.3152,"ARG_OF_PERICENTER":89.2113,"MEAN_ANOMALY":270.9214,"EPHEMERIS_TYPE":0,"CLASSIFICATION_TYPE":"U","NORAD_CAT_ID":51635,"ELEMENT_SET_NO":999,"REV_AT_EPOCH":19417,"BSTAR":-0.0017535107,"MEAN_MOTION_DOT":-5.99e-6,"MEAN_MOTION_DDOT":0},{"OBJECT_NAME":"ONEWEB-0442","OBJECT_ID":"2022-012Q","EPOCH":"2026-02-21T11:28:10.761312","MEAN_MOTION":13.17647946,"ECCENTRICITY":0.00021914,"INCLINATION":87.9119,"RA_OF_ASC_NODE":28.8586,"ARG_OF_PERICENTER":67.686,"MEAN_ANOMALY":292.4504,"EPHEMERIS_TYPE":0,"CLASSIFICATION_TYPE":"U","NORAD_CAT_ID":51636,"ELEMENT_SET_NO":999,"REV_AT_EPOCH":19843,"BSTAR":4.8367167e-5,"MEAN_MOTION_DOT":3.2e-7,"MEAN_MOTION_DDOT":0},{"OBJECT_NAME":"ONEWEB-0443","OBJECT_ID":"2022-012R","EPOCH":"2026-02-21T11:56:08.118816","MEAN_MOTION":13.17649811,"ECCENTRICITY":0.00016399,"INCLINATION":87.9116,"RA_OF_ASC_NODE":28.8579,"ARG_OF_PERICENTER":73.2517,"MEAN_ANOMALY":286.8794,"EPHEMERIS_TYPE":0,"CLASSIFICATION_TYPE":"U","NORAD_CAT_ID":51637,"ELEMENT_SET_NO":999,"REV_AT_EPOCH":19848,"BSTAR":-0.00015030965,"MEAN_MOTION_DOT":-4.5e-7,"MEAN_MOTION_DDOT":0},{"OBJECT_NAME":"ONEWEB-0444","OBJECT_ID":"2022-012S","EPOCH":"2026-02-21T11:46:40.070784","MEAN_MOTION":13.10370269,"ECCENTRICITY":0.00017546,"INCLINATION":87.8748,"RA_OF_ASC_NODE":59.3159,"ARG_OF_PERICENTER":85.9255,"MEAN_ANOMALY":274.2073,"EPHEMERIS_TYPE":0,"CLASSIFICATION_TYPE":"U","NORAD_CAT_ID":51638,"ELEMENT_SET_NO":999,"REV_AT_EPOCH":19418,"BSTAR":-0.00090719431,"MEAN_MOTION_DOT":-3.04e-6,"MEAN_MOTION_DDOT":0},{"OBJECT_NAME":"ONEWEB-0445","OBJECT_ID":"2022-012T","EPOCH":"2026-02-21T12:17:44.501568","MEAN_MOTION":13.10374513,"ECCENTRICITY":0.00020803,"INCLINATION":87.8768,"RA_OF_ASC_NODE":59.2887,"ARG_OF_PERICENTER":90.452,"MEAN_ANOMALY":269.6845,"EPHEMERIS_TYPE":0,"CLASSIFICATION_TYPE":"U","NORAD_CAT_ID":51639,"ELEMENT_SET_NO":999,"REV_AT_EPOCH":19419,"BSTAR":-0.0013356514,"MEAN_MOTION_DOT":-4.54e-6,"MEAN_MOTION_DDOT":0},{"OBJECT_NAME":"ONEWEB-0446","OBJECT_ID":"2022-012U","EPOCH":"2026-02-21T11:44:16.649376","MEAN_MOTION":13.10370427,"ECCENTRICITY":0.00019905,"INCLINATION":87.8749,"RA_OF_ASC_NODE":59.3322,"ARG_OF_PERICENTER":89.6934,"MEAN_ANOMALY":270.4421,"EPHEMERIS_TYPE":0,"CLASSIFICATION_TYPE":"U","NORAD_CAT_ID":51640,"ELEMENT_SET_NO":999,"REV_AT_EPOCH":19417,"BSTAR":-0.00065774503,"MEAN_MOTION_DOT":-2.17e-6,"MEAN_MOTION_DDOT":0},{"OBJECT_NAME":"ONEWEB-0448","OBJECT_ID":"2022-012V","EPOCH":"2026-02-21T11:51:26.622432","MEAN_MOTION":13.10371019,"ECCENTRICITY":0.000179,"INCLINATION":87.8747,"RA_OF_ASC_NODE":59.3297,"ARG_OF_PERICENTER":91.3266,"MEAN_ANOMALY":268.8066,"EPHEMERIS_TYPE":0,"CLASSIFICATION_TYPE":"U","NORAD_CAT_ID":51641,"ELEMENT_SET_NO":999,"REV_AT_EPOCH":19414,"BSTAR":-0.0011699428,"MEAN_MOTION_DOT":-3.96e-6,"MEAN_MOTION_DDOT":0},{"OBJECT_NAME":"ONEWEB-0449","OBJECT_ID":"2022-012W","EPOCH":"2026-02-21T11:58:36.636960","MEAN_MOTION":13.10371924,"ECCENTRICITY":0.00018052,"INCLINATION":87.876,"RA_OF_ASC_NODE":59.3059,"ARG_OF_PERICENTER":74.6539,"MEAN_ANOMALY":285.4787,"EPHEMERIS_TYPE":0,"CLASSIFICATION_TYPE":"U","NORAD_CAT_ID":51642,"ELEMENT_SET_NO":999,"REV_AT_EPOCH":19415,"BSTAR":-0.0016911856,"MEAN_MOTION_DOT":-5.78e-6,"MEAN_MOTION_DDOT":0},{"OBJECT_NAME":"ONEWEB-0451","OBJECT_ID":"2022-012X","EPOCH":"2026-02-21T11:34:15.669984","MEAN_MOTION":13.17648499,"ECCENTRICITY":0.00018616,"INCLINATION":87.913,"RA_OF_ASC_NODE":28.8126,"ARG_OF_PERICENTER":79.5658,"MEAN_ANOMALY":280.5683,"EPHEMERIS_TYPE":0,"CLASSIFICATION_TYPE":"U","NORAD_CAT_ID":51643,"ELEMENT_SET_NO":999,"REV_AT_EPOCH":19842,"BSTAR":6.9514005e-5,"MEAN_MOTION_DOT":4.0e-7,"MEAN_MOTION_DDOT":0},{"OBJECT_NAME":"ONEWEB-0452","OBJECT_ID":"2022-012Y","EPOCH":"2026-02-21T11:31:50.212992","MEAN_MOTION":13.176485,"ECCENTRICITY":0.00016765,"INCLINATION":87.912,"RA_OF_ASC_NODE":28.8609,"ARG_OF_PERICENTER":75.3143,"MEAN_ANOMALY":284.8174,"EPHEMERIS_TYPE":0,"CLASSIFICATION_TYPE":"U","NORAD_CAT_ID":51644,"ELEMENT_SET_NO":999,"REV_AT_EPOCH":19843,"BSTAR":0.00010843959,"MEAN_MOTION_DOT":5.5e-7,"MEAN_MOTION_DDOT":0},{"OBJECT_NAME":"ONEWEB-0456","OBJECT_ID":"2022-012AA","EPOCH":"2026-02-21T12:12:56.615040","MEAN_MOTION":13.10374891,"ECCENTRICITY":0.00017752,"INCLINATION":87.8773,"RA_OF_ASC_NODE":59.2809,"ARG_OF_PERICENTER":94.8228,"MEAN_ANOMALY":265.3102,"EPHEMERIS_TYPE":0,"CLASSIFICATION_TYPE":"U","NORAD_CAT_ID":51646,"ELEMENT_SET_NO":999,"REV_AT_EPOCH":19419,"BSTAR":-0.002080391,"MEAN_MOTION_DOT":-7.14e-6,"MEAN_MOTION_DDOT":0},{"OBJECT_NAME":"ONEWEB-0457","OBJECT_ID":"2022-012AB","EPOCH":"2026-02-21T11:39:32.297472","MEAN_MOTION":13.10357064,"ECCENTRICITY":0.00019626,"INCLINATION":87.8749,"RA_OF_ASC_NODE":59.3203,"ARG_OF_PERICENTER":73.2561,"MEAN_ANOMALY":286.8781,"EPHEMERIS_TYPE":0,"CLASSIFICATION_TYPE":"U","NORAD_CAT_ID":51647,"ELEMENT_SET_NO":999,"REV_AT_EPOCH":19419,"BSTAR":0.0083337995,"MEAN_MOTION_DOT":2.922e-5,"MEAN_MOTION_DDOT":0},{"OBJECT_NAME":"ONEWEB-0458","OBJECT_ID":"2022-012AC","EPOCH":"2026-02-21T12:10:33.993696","MEAN_MOTION":13.10373406,"ECCENTRICITY":0.00017472,"INCLINATION":87.8764,"RA_OF_ASC_NODE":59.2959,"ARG_OF_PERICENTER":85.4711,"MEAN_ANOMALY":274.6616,"EPHEMERIS_TYPE":0,"CLASSIFICATION_TYPE":"U","NORAD_CAT_ID":51648,"ELEMENT_SET_NO":999,"REV_AT_EPOCH":19415,"BSTAR":-0.0017931362,"MEAN_MOTION_DOT":-6.13e-6,"MEAN_MOTION_DDOT":0},{"OBJECT_NAME":"ONEWEB-0461","OBJECT_ID":"2022-012AD","EPOCH":"2026-02-21T12:03:24.883776","MEAN_MOTION":13.17648931,"ECCENTRICITY":0.000204,"INCLINATION":87.9129,"RA_OF_ASC_NODE":28.8236,"ARG_OF_PERICENTER":82.4908,"MEAN_ANOMALY":277.6455,"EPHEMERIS_TYPE":0,"CLASSIFICATION_TYPE":"U","NORAD_CAT_ID":51649,"ELEMENT_SET_NO":999,"REV_AT_EPOCH":19865,"BSTAR":-5.669633e-5,"MEAN_MOTION_DOT":-9.0e-8,"MEAN_MOTION_DDOT":0},{"OBJECT_NAME":"ONEWEB-0463","OBJECT_ID":"2022-012AE","EPOCH":"2026-02-21T11:36:41.495904","MEAN_MOTION":13.17647905,"ECCENTRICITY":0.00020423,"INCLINATION":87.9118,"RA_OF_ASC_NODE":28.8614,"ARG_OF_PERICENTER":84.6485,"MEAN_ANOMALY":275.4879,"EPHEMERIS_TYPE":0,"CLASSIFICATION_TYPE":"U","NORAD_CAT_ID":51650,"ELEMENT_SET_NO":999,"REV_AT_EPOCH":19843,"BSTAR":2.1243348e-5,"MEAN_MOTION_DOT":2.1e-7,"MEAN_MOTION_DDOT":0},{"OBJECT_NAME":"ONEWEB-0464","OBJECT_ID":"2022-012AF","EPOCH":"2026-02-21T12:05:46.878720","MEAN_MOTION":13.10373307,"ECCENTRICITY":0.00016468,"INCLINATION":87.8752,"RA_OF_ASC_NODE":59.3263,"ARG_OF_PERICENTER":95.7123,"MEAN_ANOMALY":264.4192,"EPHEMERIS_TYPE":0,"CLASSIFICATION_TYPE":"U","NORAD_CAT_ID":51651,"ELEMENT_SET_NO":999,"REV_AT_EPOCH":19417,"BSTAR":-0.0018948629,"MEAN_MOTION_DOT":-6.49e-6,"MEAN_MOTION_DDOT":0},{"OBJECT_NAME":"ONEWEB-0468","OBJECT_ID":"2022-012AG","EPOCH":"2026-02-21T12:15:20.574720","MEAN_MOTION":13.10377438,"ECCENTRICITY":0.00015241,"INCLINATION":87.8755,"RA_OF_ASC_NODE":59.3196,"ARG_OF_PERICENTER":95.3711,"MEAN_ANOMALY":264.7591,"EPHEMERIS_TYPE":0,"CLASSIFICATION_TYPE":"U","NORAD_CAT_ID":51652,"ELEMENT_SET_NO":999,"REV_AT_EPOCH":19415,"BSTAR":-0.0015160401,"MEAN_MOTION_DOT":-5.17e-6,"MEAN_MOTION_DDOT":0}]
