ONEWEB-0439             
1 51635U 22012P   26052.50068832 -.00000599  00000+0 -17535-2 0  9991
2 51635  87.8753  59.3152 0001748  89.2113 270.9214 13.10369635194173
ONEWEB-0442             
1 51636U 22012Q   26052.47790233  .00000032  00000+0  48367-4 0  9994
2 51636  87.9119  28.8586 0002191  67.6860 292.4504 13.17647946198430
ONEWEB-0443             
1 51637U 22012R   26052.49731619 -.00000045  00000+0 -15031-3 0  9997
2 51637  87.9116  28.8579 0001639  73.2517 286.8794 13.17649811198484
ONEWEB-0444             
1 51638U 22012S   26052.49074156 -.00000304  00000+0 -90719-3 0  9998
2 51638  87.8748  59.3159 0001754  85.9255 274.2073 13.10370269194180
ONEWEB-0445             
1 51639U 22012T   26052.51232062 -.00000454  00000+0 -13357-2 0  9992
2 51639  87.8768  59.2887 0002080  90.4520 269.6845 13.10374513194191
ONEWEB-0446             
1 51640U 22012U   26052.48908159 -.00000217  00000+0 -65775-3 0  9996
2 51640  87.8749  59.3322 0001990  89.6934 270.4421 13.10370427194173
ONEWEB-0448             
1 51641U 22012V   26052.49405813 -.00000396  00000+0 -11699-2 0  9990
2 51641  87.8747  59.3297 0001790  91.3266 268.8066 13.10371019194140
ONEWEB-0449             
1 51642U 22012W   26052.49903515 -.00000578  00000+0 -16912-2 0  9998
2 51642  87.8760  59.3059 0001805  74.6539 285.4787 13.10371924194157
ONEWEB-0451             
1 51643U 22012X   26052.48212581  .00000040  00000+0  69514-4 0  9994
2 51643  87.9130  28.8126 0001861  79.5658 280.5683 13.17648499198420
ONEWEB-0452             
1 51644U 22012Y   26052.48044228  .00000055  00000+0  10844-3 0  9993
2 51644  87.9120  28.8609 0001676  75.3143 284.8174 13.17648500198439
ONEWEB-0456             
1 51646U 22012AA  26052.50898860 -.00000714  00000+0 -20804-2 0  9997
2 51646  87.8773  59.2809 0001775  94.8228 265.3102 13.10374891194190
ONEWEB-0457             
1 51647U 22012AB  26052.48579048  .00002922  00000+0  83338-2 0  9991
2 51647  87.8749  59.3203 0001962  73.2561 286.8781 13.10357064194196
ONEWEB-0458             
1 51648U 22012AC  26052.50733789 -.00000613  00000+0 -17931-2 0  9992
2 51648  87.8764  59.2959 0001747  85.4711 274.6616 13.10373406194150
ONEWEB-0461             
1 51649U 22012AD  26052.50237134 -.00000009  00000+0 -56696-4 0  9998
2 51649  87.9129  28.8236 0002040  82.4908 277.6455 13.17648931198657
ONEWEB-0463             
1 51650U 22012AE  26052.48381361  .00000021  00000+0  21243-4 0  9991
2 51650  87.9118  28.8614 0002042  84.6485 275.4879 13.17647905198435
ONEWEB-0464             
1 51651U 22012AF  26052.50401480 -.00000649  00000+0 -18949-2 0  9995
2 51651  87.8752  59.3263 0001646  95.7123 264.4192 13.10373307194177
ONEWEB-0468             
1 51652U 22012AG  26052.51065480 -.00000517  00000+0 -15160-2 0  9999
2 51652  87.8755  59.3196 0001524  95.3711 264.7591 13.10377438194153
